OPS 7218 (TRANSIT 16)   
1 02807U 67048A   24360.58010500  .00000224  00000+0  33245-3 0  9993
2 02807  89.6729   5.5200 0021842  57.6998  59.5064 13.50613420835227
OPS 4947 (TRANSIT 17)   
1 02965U 67092A   24360.61152003  .00000252  00000+0  35667-3 0  9997
2 02965  89.2363  51.4716 0048116 176.3089 303.2467 13.53338450823343
OPS 7034 (TRANSIT 18)   
1 03133U 68012A   24360.54490910  .00000228  00000+0  32884-3 0  9993
2 03133  90.0254 272.8277 0075743 110.1423  62.8339 13.51456806521610
NNSS 19 (TRANSIT 19)    
1 04507U 70067A   24360.59461927  .00000209  00000+0  28344-3 0  9998
2 04507  89.9809 234.7914 0170599 233.1840 125.3559 13.51187533674669
NNSS 20 (TRANSIT 20)    
1 06909U 73081A   24360.48201118  .00000477  00000+0  47655-3 0  9990
2 06909  89.8428 260.7321 0156900  54.7974 306.7765 13.71230476755334
TRANSAT                 
1 10457U 77106A   24360.50446928  .00000145  00000+0  21464-3 0  9990
2 10457  89.6509  91.1844 0027002 127.7505 243.4430 13.48873545319956
NOVA 1                  
1 12458U 81044A   24360.50571027  .00000090  00000+0  19152-3 0  9998
2 12458  89.8620  96.3612 0013750   1.8074  10.9878 13.23222254105283
NOVA 3                  
1 15362U 84110A   24360.25379053  .00000100  00000+0  21721-3 0  9996
2 15362  90.1203  76.5538 0030956 218.2702 202.1015 13.22988419940385
OSCAR 30                
1 15935U 85066A   24360.51335007  .00000156  00000+0  26706-3 0  9992
2 15935  90.1774  94.0233 0167457 358.1552  12.3962 13.35992143917575
OSCAR 24                
1 15936U 85066B   24360.53568488  .00000148  00000+0  25279-3 0  9991
2 15936  90.1852  86.1145 0168551   4.4124   6.1573 13.35852436919637
POLAR BEAR              
1 17070U 86088A   24360.59737964  .00000227  00000+0  22407-3 0  9998
2 17070  89.6088 197.8879 0041232 102.3612 319.0358 13.75150096911391
OSCAR 27                
1 18361U 87080A   24360.18225669  .00000187  00000+0  29461-3 0  9996
2 18361  90.3679  66.3083 0105121 153.6276 207.0277 13.44816535828183
OSCAR 29                
1 18362U 87080B   24360.60758330  .00000164  00000+0  25829-3 0  9999
2 18362  90.3691  66.7508 0106095 174.5125 308.3055 13.44371092827788
OSCAR 23                
1 19070U 88033A   24360.53337656  .00000148  00000+0  27684-3 0  9994
2 19070  90.3130   5.4779 0191337  80.0798  32.1359 13.27714753775791
OSCAR 32                
1 19071U 88033B   24360.55465250  .00000154  00000+0  29033-3 0  9996
2 19071  90.3133   5.5936 0189636  67.3008  44.4417 13.27884942775915
NOVA 2                  
1 19223U 88052A   24360.62066110  .00000078  00000+0  16578-3 0  9991
2 19223  89.9852  78.8827 0028774 262.9168 223.1313 13.22885540762921
OSCAR 25                
1 19419U 88074A   24360.61612722  .00000184  00000+0  30073-3 0  9991
2 19419  90.0225  19.1787 0096530 169.8744 308.9015 13.42534981779154
OSCAR 31                
1 19420U 88074B   24360.63094211  .00000158  00000+0  25598-3 0  9999
2 19420  90.0239  19.4737 0094930 163.9941 311.5761 13.42512717779268
